[
    {
        "Altitude(m)": 605470.7604083224,
        "Argument of Periapsis(deg)": 0.0,
        "Eccentricity": 0.0,
        "Inclination(deg)": 60.0,
        "Latitude(deg)": 27.988110070923923,
        "Longitude(deg)": -162.73700414977753,
        "Mean Anomaly(deg)": 147.2727,
        "RAAN(deg)": 135.0,
        "Satellite Name": "Test1 603",
        "Satellite Number": 603,
        "Semi-Major Axis(m)": 6980739.136638005,
        "Time(s)": 0
    },
    {
        "Altitude(m)": 605395.7984825431,
        "Argument of Periapsis(deg)": 0.00010418945913296404,
        "Eccentricity": 0.0,
        "Inclination(deg)": 60.0,
        "Latitude(deg)": 27.473800189029756,
        "Longitude(deg)": -162.38381772955,
        "Mean Anomaly(deg)": 147.89280614546186,
        "RAAN(deg)": 134.99957995086024,
        "Satellite Name": "Test1 603",
        "Satellite Number": 603,
        "Semi-Major Axis(m)": 6980739.136638005,
        "Time(s)": 10
    }
]